{"fetched_at":"2026-03-29T16:36:15Z","count":15609,"tles":[{"name":"STARLINK-30712","line1":"1 57935U 23148A   26087.89205572  .00000257  00000+0  20797-4 0  9990","line2":"2 57935  53.1615 295.0067 0001250  99.4723 260.6419 15.30193266141362","category":"Starlink"}]}